GLOBALSTAR M067 [+]     
1 32263U 07048A   23237.27553370 -.00000086  00000+0  84654-4 0  9999
2 32263  51.9716 172.6639 0001246  16.8350 139.2890 12.40630047727574
GLOBALSTAR M070 [+]     
1 32264U 07048B   23237.32687764 -.00000094  00000+0  55556-4 0  9999
2 32264  51.9776 344.7243 0001107 101.6892 297.4589 12.62276734731068
GLOBALSTAR M066 [+]     
1 32265U 07048C   23237.13491878 -.00000086  00000+0  10037-3 0  9993
2 32265  51.9656 207.3948 0000867 278.5152 162.9734 12.62262662733264
GLOBALSTAR M068 [-]     
1 32266U 07048D   23237.05653160 -.00000078  00000+0  14253-3 0  9994
2 32266  51.9880 160.5449 0001047  90.7756 341.9485 12.62764832734196
GLOBALSTAR M079 [+]     
1 37188U 10054A   23236.82671786 -.00000089  00000+0  81148-4 0  9991
2 37188  52.0069 356.1196 0000572  97.6358  72.2543 12.62267053592805
GLOBALSTAR M074 [+]     
1 37189U 10054B   23237.14729396 -.00000095  00000+0  47275-4 0  9999
2 37189  52.0043 354.5689 0000753  98.8429 328.4555 12.62268978593526
GLOBALSTAR M076 [+]     
1 37190U 10054C   23237.32294701 -.00000103  00000+0  36412-5 0  9990
2 37190  52.0052 354.1424 0000679  50.7905 336.5661 12.62260228593555
GLOBALSTAR M077 [+]     
1 37191U 10054D   23236.37064770 -.00000084  00000+0  11237-3 0  9990
2 37191  52.0086 313.7115 0000581 105.1848 331.1438 12.62270283593447
